{
  "type": "FeatureCollection",
  "features": [
    {
      "type": "Feature",
      "properties": {
        "norad_id": 37562,
        "name": "IRIDIUM 33 DEB",
        "group": "iridium-33-debris",
        "lat": -2.4680983519885924,
        "lon": 44.86482623345844,
        "alt_km": 717.5001266952031,
        "timestamp": "2025-12-09T11:33:55.186475+00:00",
        "meta_object_name": "IRIDIUM 33 DEB",
        "meta_object_id": "1997-051XX",
        "meta_epoch": "2025-12-07T12:03:22.182048",
        "meta_mean_motion": 14.56401675,
        "meta_eccentricity": 0.00267128,
        "meta_inclination": 86.3743,
        "meta_ra_of_asc_node": 45.8843,
        "meta_arg_of_pericenter": 124.2165,
        "meta_mean_anomaly": 301.4124,
        "meta_ephemeris_type": 0,
        "meta_classification_type": "U",
        "meta_norad_cat_id": 37562,
        "meta_element_set_no": 999,
        "meta_rev_at_epoch": 86252,
        "meta_bstar": 0.0018073618,
        "meta_mean_motion_dot": 8.081e-05,
        "meta_mean_motion_ddot": 0,
        "tle_line1": "1 37562U 97051XX  25341.50234007  .00008081  00000+0  18074-2 0  9999",
        "tle_line2": "2 37562  86.3743  45.8843 0026712 124.2165 301.4124 14.56401675862524"
      },
      "geometry": {
        "type": "Point",
        "coordinates": [
          44.86482623345844,
          -2.4680983519885924
        ]
      }
    },
    {
      "type": "Feature",
      "properties": {
        "norad_id": 37565,
        "name": "IRIDIUM 33 DEB",
        "group": "iridium-33-debris",
        "lat": -16.77747007534352,
        "lon": -167.8993159967058,
        "alt_km": 728.3507914040019,
        "timestamp": "2025-12-09T11:33:55.186495+00:00",
        "meta_object_name": "IRIDIUM 33 DEB",
        "meta_object_id": "1997-051YA",
        "meta_epoch": "2025-12-07T09:01:39.007488",
        "meta_mean_motion": 14.51484742,
        "meta_eccentricity": 0.00152828,
        "meta_inclination": 86.3495,
        "meta_ra_of_asc_node": 11.9147,
        "meta_arg_of_pericenter": 99.6797,
        "meta_mean_anomaly": 260.6136,
        "meta_ephemeris_type": 0,
        "meta_classification_type": "U",
        "meta_norad_cat_id": 37565,
        "meta_element_set_no": 999,
        "meta_rev_at_epoch": 65759,
        "meta_bstar": 0.00094060687,
        "meta_mean_motion_dot": 3.783e-05,
        "meta_mean_motion_ddot": 0,
        "tle_line1": "1 37565U 97051YA  25341.37614592  .00003783  00000+0  94061-3 0  9993",
        "tle_line2": "2 37565  86.3495  11.9147 0015282  99.6797 260.6136 14.51484742657597"
      },
      "geometry": {
        "type": "Point",
        "coordinates": [
          -167.8993159967058,
          -16.77747007534352
        ]
      }
    },
    {
      "type": "Feature",
      "properties": {
        "norad_id": 38017,
        "name": "IRIDIUM 33 DEB",
        "group": "iridium-33-debris",
        "lat": -45.034912259879846,
        "lon": 163.96678961340865,
        "alt_km": 797.446414725564,
        "timestamp": "2025-12-09T11:33:55.186515+00:00",
        "meta_object_name": "IRIDIUM 33 DEB",
        "meta_object_id": "1997-051YD",
        "meta_epoch": "2025-12-08T05:56:18.042720",
        "meta_mean_motion": 14.48737488,
        "meta_eccentricity": 0.00921036,
        "meta_inclination": 86.3413,
        "meta_ra_of_asc_node": 168.1763,
        "meta_arg_of_pericenter": 118.1049,
        "meta_mean_anomaly": 242.9503,
        "meta_ephemeris_type": 0,
        "meta_classification_type": "U",
        "meta_norad_cat_id": 38017,
        "meta_element_set_no": 999,
        "meta_rev_at_epoch": 61337,
        "meta_bstar": 0.0058056244,
        "meta_mean_motion_dot": 0.00023176,
        "meta_mean_motion_ddot": 0,
        "tle_line1": "1 38017U 97051YD  25342.24743105  .00023176  00000+0  58056-2 0  9997",
        "tle_line2": "2 38017  86.3413 168.1763 0092103 118.1049 242.9503 14.48737488613376"
      },
      "geometry": {
        "type": "Point",
        "coordinates": [
          163.96678961340865,
          -45.034912259879846
        ]
      }
    },
    {
      "type": "Feature",
      "properties": {
        "norad_id": 38022,
        "name": "IRIDIUM 33 DEB",
        "group": "iridium-33-debris",
        "lat": -7.491383682399735,
        "lon": -161.63823627469588,
        "alt_km": 778.397203485647,
        "timestamp": "2025-12-09T11:33:55.186532+00:00",
        "meta_object_name": "IRIDIUM 33 DEB",
        "meta_object_id": "1997-051YJ",
        "meta_epoch": "2025-12-07T08:42:47.311776",
        "meta_mean_motion": 14.41201446,
        "meta_eccentricity": 0.00469795,
        "meta_inclination": 86.2687,
        "meta_ra_of_asc_node": 18.7976,
        "meta_arg_of_pericenter": 67.6005,
        "meta_mean_anomaly": 293.0162,
        "meta_ephemeris_type": 0,
        "meta_classification_type": "U",
        "meta_norad_cat_id": 38022,
        "meta_element_set_no": 999,
        "meta_rev_at_epoch": 69116,
        "meta_bstar": 0.0015997038,
        "meta_mean_motion_dot": 5.249e-05,
        "meta_mean_motion_ddot": 0,
        "tle_line1": "1 38022U 97051YJ  25341.36304759  .00005249  00000+0  15997-2 0  9991",
        "tle_line2": "2 38022  86.2687  18.7976 0046979  67.6005 293.0162 14.41201446691164"
      },
      "geometry": {
        "type": "Point",
        "coordinates": [
          -161.63823627469588,
          -7.491383682399735
        ]
      }
    },
    {
      "type": "Feature",
      "properties": {
        "norad_id": 38028,
        "name": "IRIDIUM 33 DEB",
        "group": "iridium-33-debris",
        "lat": -85.29182591219381,
        "lon": -49.55639998792998,
        "alt_km": 762.1499865019023,
        "timestamp": "2025-12-09T11:33:55.186549+00:00",
        "meta_object_name": "IRIDIUM 33 DEB",
        "meta_object_id": "1997-051YQ",
        "meta_epoch": "2025-12-06T19:12:19.598112",
        "meta_mean_motion": 14.46166745,
        "meta_eccentricity": 0.00294822,
        "meta_inclination": 86.3276,
        "meta_ra_of_asc_node": 2.8528,
        "meta_arg_of_pericenter": 139.7765,
        "meta_mean_anomaly": 220.5627,
        "meta_ephemeris_type": 0,
        "meta_classification_type": "U",
        "meta_norad_cat_id": 38028,
        "meta_element_set_no": 999,
        "meta_rev_at_epoch": 65409,
        "meta_bstar": 0.00054862399,
        "meta_mean_motion_dot": 1.991e-05,
        "meta_mean_motion_ddot": 0,
        "tle_line1": "1 38028U 97051YQ  25340.80022683  .00001991  00000+0  54862-3 0  9993",
        "tle_line2": "2 38028  86.3276   2.8528 0029482 139.7765 220.5627 14.46166745654095"
      },
      "geometry": {
        "type": "Point",
        "coordinates": [
          -49.55639998792998,
          -85.29182591219381
        ]
      }
    },
    {
      "type": "Feature",
      "properties": {
        "norad_id": 38228,
        "name": "IRIDIUM 33 DEB",
        "group": "iridium-33-debris",
        "lat": 67.31984167442613,
        "lon": 58.77441052644665,
        "alt_km": 825.10771534986,
        "timestamp": "2025-12-09T11:33:55.186565+00:00",
        "meta_object_name": "IRIDIUM 33 DEB",
        "meta_object_id": "1997-051ZC",
        "meta_epoch": "2025-12-08T11:59:08.255904",
        "meta_mean_motion": 14.27257685,
        "meta_eccentricity": 0.00637921,
        "meta_inclination": 86.2952,
        "meta_ra_of_asc_node": 50.2726,
        "meta_arg_of_pericenter": 203.1298,
        "meta_mean_anomaly": 220.077,
        "meta_ephemeris_type": 0,
        "meta_classification_type": "U",
        "meta_norad_cat_id": 38228,
        "meta_element_set_no": 999,
        "meta_rev_at_epoch": 84721,
        "meta_bstar": 0.00059886698,
        "meta_mean_motion_dot": 1.514e-05,
        "meta_mean_motion_ddot": 0,
        "tle_line1": "1 38228U 97051ZC  25342.49940111  .00001514  00000+0  59887-3 0  9990",
        "tle_line2": "2 38228  86.2952  50.2726 0063792 203.1298 220.0770 14.27257685847218"
      },
      "geometry": {
        "type": "Point",
        "coordinates": [
          58.77441052644665,
          67.31984167442613
        ]
      }
    },
    {
      "type": "Feature",
      "properties": {
        "norad_id": 38241,
        "name": "IRIDIUM 33 DEB",
        "group": "iridium-33-debris",
        "lat": 26.609445068071746,
        "lon": -6.11655530408638,
        "alt_km": 706.273683955008,
        "timestamp": "2025-12-09T11:33:55.186582+00:00",
        "meta_object_name": "IRIDIUM 33 DEB",
        "meta_object_id": "1997-051ZR",
        "meta_epoch": "2025-12-05T18:18:10.298016",
        "meta_mean_motion": 14.54799988,
        "meta_eccentricity": 0.00056722,
        "meta_inclination": 86.3224,
        "meta_ra_of_asc_node": 353.6772,
        "meta_arg_of_pericenter": 87.2865,
        "meta_mean_anomaly": 272.8992,
        "meta_ephemeris_type": 0,
        "meta_classification_type": "U",
        "meta_norad_cat_id": 38241,
        "meta_element_set_no": 999,
        "meta_rev_at_epoch": 60099,
        "meta_bstar": 0.0014749391,
        "meta_mean_motion_dot": 6.345e-05,
        "meta_mean_motion_ddot": 0,
        "tle_line1": "1 38241U 97051ZR  25339.76261919  .00006345  00000+0  14749-2 0  9997",
        "tle_line2": "2 38241  86.3224 353.6772 0005672  87.2865 272.8992 14.54799988600991"
      },
      "geometry": {
        "type": "Point",
        "coordinates": [
          -6.11655530408638,
          26.609445068071746
        ]
      }
    }
  ]
}